<?xml version="1.0" encoding="UTF-8"?>
<kml xmlns="http://www.opengis.net/kml/2.2"><Document><name>ONFF release</name>
      <Folder><name>ONFF-0001 Gebied Een</name>
        <Placemark><name>Gebied Een</name><Polygon><outerBoundaryIs><LinearRing>
          <coordinates>4.35,50.85,0 4.359999999999999,50.85,0 4.359999999999999,50.86,0 4.35,50.86,0 4.35,50.85,0</coordinates>
        </LinearRing></outerBoundaryIs></Polygon></Placemark>
      </Folder>
      <Folder><name>ONFF-0002 Gebied Twee</name>
        <Placemark><name>Gebied Twee</name><Polygon><outerBoundaryIs><LinearRing>
          <coordinates>4.4,50.9,0 4.41,50.9,0 4.41,50.91,0 4.4,50.91,0 4.4,50.9,0</coordinates>
        </LinearRing></outerBoundaryIs></Polygon></Placemark>
      </Folder>
      <Folder><name>ONFF-0004 Gebied Vier</name>
        <Placemark><name>Gebied Vier</name><Polygon><outerBoundaryIs><LinearRing>
          <coordinates>4.5,50.95,0 4.51,50.95,0 4.51,50.96,0 4.5,50.96,0 4.5,50.95,0</coordinates>
        </LinearRing></outerBoundaryIs></Polygon></Placemark>
      </Folder></Document></kml>
