{"type":"FeatureCollection","generated":"2026-09-09T08:43:34Z","features":[{"type":"Feature","properties":{"ref":"ONFF-0004","name":"Princess Elisabeth base","prov":"Antarctica","iucn":"Cat Ia","loc":"KB18QB","site":"http://www.antarcticstation.org/","nopoly":true,"src":"wwff"},"geometry":{"type":"Point","coordinates":[23.3468,-71.95041]}},{"type":"Feature","properties":{"ref":"ONFF-0254","name":"Kollintenbos/Kollinten","prov":"Vlaams-Brabant","iucn":"Cat IV","loc":"JO20EX","site":"www.natuurpuntzemst.be/index.php?page=op-stap-in-kollinten","nopoly":true,"src":"wwff"},"geometry":{"type":"Point","coordinates":[4.39794,50.99383]}}]}