{"type":"FeatureCollection","generated":"2026-09-25T05:19:42Z","features":[{"type":"Feature","properties":{"ref":"DLFF-0022","name":"Neumayer 3 Station","loc":"IB59UH","nopoly":true,"src":"wwff"},"geometry":{"type":"Point","coordinates":[-8.26722,-70.66889]}},{"type":"Feature","properties":{"ref":"DLFF-0494","name":"NSG Fichtelberg","loc":"JO60LK","site":"www.geodienste.bfn.de/schutzgebiete/#?centerX=3781900.611?centerY=5594163.544?scale=50000?layers=524","nopoly":true,"src":"wwff"},"geometry":{"type":"Point","coordinates":[12.94226,50.42002]}}]}