{"type":"FeatureCollection","generated":"2026-09-19T05:39:17Z","features":[{"type":"Feature","properties":{"ref":"OZFF-0055","name":"Tissingvig","loc":"JO46HR","nopoly":true,"src":"wwff"},"geometry":{"type":"Point","coordinates":[8.63973,56.71999]}},{"type":"Feature","properties":{"ref":"OZFF-0090","name":"Brorfelde","iucn":"Cat V","loc":"JO55TO","nopoly":true,"src":"wwff"},"geometry":{"type":"Point","coordinates":[11.66458,55.62464]}},{"type":"Feature","properties":{"ref":"OZFF-0099","name":"Laven Julsoe","iucn":"Cat V","loc":"JO46UC","site":"protectedplanet.net/sites/Laven_Julso_Nordost_Protected_By_Conservation_Order","nopoly":true,"src":"wwff"},"geometry":{"type":"Point","coordinates":[9.70471,56.12438]}},{"type":"Feature","properties":{"ref":"OZFF-0167","name":"Fredericia Vold","iucn":"Cat V","loc":"JO45VN","site":"www.fredninger.dk/fredning/fredericia-vold/","nopoly":true,"src":"wwff"},"geometry":{"type":"Point","coordinates":[9.75043,55.56706]}},{"type":"Feature","properties":{"ref":"OZFF-0174","name":"Gludsted Plantage","iucn":"Cat IV","loc":"JO46PB","site":"https://www.protectedplanet.net/norlund-og-gludsted-plantager-protected-by-conservation-order-excl-church-surroundings","nopoly":true,"src":"wwff"},"geometry":{"type":"Point","coordinates":[9.27656,56.0721]}},{"type":"Feature","properties":{"ref":"OZFF-0301","name":"Vejle Aadal - (Vejle Ådal)","iucn":"Cat V","loc":"JO45QQ","site":"https://oz7aei.dk/OZFFareas/OZFF-0301%20Vejle%20%C3%85dal.kmz","nopoly":true,"src":"wwff"},"geometry":{"type":"Point","coordinates":[9.34653,55.67431]}}]}