{"type":"FeatureCollection","generated":"2026-09-25T06:01:35Z","features":[{"type":"Feature","properties":{"ref":"PAFF-0021","name":"Sint Christoffel","loc":"FK52KH","nopoly":true,"src":"wwff"},"geometry":{"type":"Point","coordinates":[-69.103,12.32942]}},{"type":"Feature","properties":{"ref":"PAFF-0022","name":"Shete Boka","loc":"FK52KI","nopoly":true,"src":"wwff"},"geometry":{"type":"Point","coordinates":[-69.12405,12.37366]}},{"type":"Feature","properties":{"ref":"PAFF-0023","name":"Washington Slagbaai","loc":"FK52TG","nopoly":true,"src":"wwff"},"geometry":{"type":"Point","coordinates":[-68.39354,12.26658]}},{"type":"Feature","properties":{"ref":"PAFF-0024","name":"Bonaire National Marine Park","loc":"FK52UD","nopoly":true,"src":"wwff"},"geometry":{"type":"Point","coordinates":[-68.25076,12.16529]}},{"type":"Feature","properties":{"ref":"PAFF-0025","name":"St. Eustatius (Statia) Marine Park","loc":"FK87ML","nopoly":true,"src":"wwff"},"geometry":{"type":"Point","coordinates":[-62.97234,17.46513]}},{"type":"Feature","properties":{"ref":"PAFF-0026","name":"Quill/ Boven National Park","loc":"FK87ML","nopoly":true,"src":"wwff"},"geometry":{"type":"Point","coordinates":[-62.9793,17.49248]}},{"type":"Feature","properties":{"ref":"PAFF-0027","name":"Saba National Marine Park","loc":"FK87JP","nopoly":true,"src":"wwff"},"geometry":{"type":"Point","coordinates":[-63.2499,17.635]}},{"type":"Feature","properties":{"ref":"PAFF-0081","name":"Clingse bossen","iucn":"Cat IV","loc":"JO21AG","nopoly":true,"src":"wwff"},"geometry":{"type":"Point","coordinates":[4.07565,51.25737]}},{"type":"Feature","properties":{"ref":"PAFF-0082","name":"Margaretha polder","iucn":"Cat IV","loc":"JO11WI","site":"www.deltabirding.nl/margarethapolder.html","nopoly":true,"src":"wwff"},"geometry":{"type":"Point","coordinates":[3.88071,51.33953]}},{"type":"Feature","properties":{"ref":"PAFF-0083","name":"Braakman Noorderbossen","iucn":"Cat IV","loc":"JO11UH","nopoly":true,"src":"wwff"},"geometry":{"type":"Point","coordinates":[3.73284,51.33207]}},{"type":"Feature","properties":{"ref":"PAFF-0177","name":"Grote Putting","loc":"JO21AI","nopoly":true,"src":"wwff"},"geometry":{"type":"Point","coordinates":[4.02082,51.34988]}}]}